{"type": "FeatureCollection", "features": [ {"type": "Feature", "properties": {"norad_id": 30676, "name": "FENGYUN 1C DEB", "group": "fengyun-1c-debris", "lat": 59.03030911082338, "lon": 167.89738311518065, "alt_km": 709.4686070878761, "timestamp": "2025-12-23T09:49:07.361140+00:00", "meta": {"OBJECT_NAME": "FENGYUN 1C DEB", "OBJECT_ID": "1999-025AQJ", "EPOCH": "2025-12-21T19:06:12.812832", "MEAN_MOTION": 13.73934846, "ECCENTRICITY": 0.04720248, "INCLINATION": 98.2658, "RA_OF_ASC_NODE": 180.513, "ARG_OF_PERICENTER": 23.7653, "MEAN_ANOMALY": 338.4542, "EPHEMERIS_TYPE": 0, "CLASSIFICATION_TYPE": "U", "NORAD_CAT_ID": 30676, "ELEMENT_SET_NO": 999, "REV_AT_EPOCH": 94048, "BSTAR": 0.000539443, "MEAN_MOTION_DOT": 1.101e-05, "MEAN_MOTION_DDOT": 0}, "tle": {"line1": "1 30676U 99025AQJ 25355.79598163  .00001101  00000+0  53944-3 0  9995", "line2": "2 30676  98.2658 180.5130 0472024  23.7653 338.4542 13.73934846940487"}}, "geometry": {"type": "Point", "coordinates": [167.89738311518065, 59.03030911082338]}}, {"type": "Feature", "properties": {"norad_id": 30677, "name": "FENGYUN 1C DEB", "group": "fengyun-1c-debris", "lat": 50.30811963823133, "lon": 32.024329138737095, "alt_km": 784.1777402460039, "timestamp": "2025-12-23T09:49:07.361150+00:00", "meta": {"OBJECT_NAME": "FENGYUN 1C DEB", "OBJECT_ID": "1999-025AQK", "EPOCH": "2025-12-22T02:12:25.024320", "MEAN_MOTION": 14.38205817, "ECCENTRICITY": 0.00666046, "INCLINATION": 98.2529, "RA_OF_ASC_NODE": 40.8297, "ARG_OF_PERICENTER": 176.241, "MEAN_ANOMALY": 259.8263, "EPHEMERIS_TYPE": 0, "CLASSIFICATION_TYPE": "U", "NORAD_CAT_ID": 30677, "ELEMENT_SET_NO": 999, "REV_AT_EPOCH": 98114, "BSTAR": 0.0010423236, "MEAN_MOTION_DOT": 3.207e-05, "MEAN_MOTION_DDOT": 0}, "tle": {"line1": "1 30677U 99025AQK 25356.09195630  .00003207  00000+0  10423-2 0  9995", "line2": "2 30677  98.2529  40.8297 0066604 176.2410 259.8263 14.38205817981140"}}, "geometry": {"type": "Point", "coordinates": [32.024329138737095, 50.30811963823133]}}, {"type": "Feature", "properties": {"norad_id": 30678, "name": "FENGYUN 1C DEB", "group": "fengyun-1c-debris", "lat": 79.48750105116238, "lon": -100.99922762318299, "alt_km": 824.587198349559, "timestamp": "2025-12-23T09:49:07.361160+00:00", "meta": {"OBJECT_NAME": "FENGYUN 1C DEB", "OBJECT_ID": "1999-025AQL", "EPOCH": "2025-12-21T20:35:06.919872", "MEAN_MOTION": 14.24271486, "ECCENTRICITY": 0.00711011, "INCLINATION": 99.0802, "RA_OF_ASC_NODE": 316.919, "ARG_OF_PERICENTER": 203.8982, "MEAN_ANOMALY": 211.3666, "EPHEMERIS_TYPE": 0, "CLASSIFICATION_TYPE": "U", "NORAD_CAT_ID": 30678, "ELEMENT_SET_NO": 999, "REV_AT_EPOCH": 96005, "BSTAR": 0.002168063, "MEAN_MOTION_DOT": 5.093e-05, "MEAN_MOTION_DDOT": 0}, "tle": {"line1": "1 30678U 99025AQL 25355.85771898  .00005093  00000+0  21681-2 0  9998", "line2": "2 30678  99.0802 316.9190 0071101 203.8982 211.3666 14.24271486960059"}}, "geometry": {"type": "Point", "coordinates": [-100.99922762318299, 79.48750105116238]}}, {"type": "Feature", "properties": {"norad_id": 30679, "name": "FENGYUN 1C DEB", "group": "fengyun-1c-debris", "lat": -60.16078907886414, "lon": 65.81406472769696, "alt_km": 1017.4731966573572, "timestamp": "2025-12-23T09:49:07.361170+00:00", "meta": {"OBJECT_NAME": "FENGYUN 1C DEB", "OBJECT_ID": "1999-025AQM", "EPOCH": "2025-12-20T19:46:15.149280", "MEAN_MOTION": 13.79725977, "ECCENTRICITY": 0.01712479, "INCLINATION": 99.3807, "RA_OF_ASC_NODE": 46.5028, "ARG_OF_PERICENTER": 57.4795, "MEAN_ANOMALY": 8.3202, "EPHEMERIS_TYPE": 0, "CLASSIFICATION_TYPE": "U", "NORAD_CAT_ID": 30679, "ELEMENT_SET_NO": 999, "REV_AT_EPOCH": 94631, "BSTAR": 0.00049435234, "MEAN_MOTION_DOT": 5.27e-06, "MEAN_MOTION_DDOT": 0}, "tle": {"line1": "1 30679U 99025AQM 25354.82378645  .00000527  00000+0  49435-3 0  9993", "line2": "2 30679  99.3807  46.5028 0171247  57.4795   8.3202 13.79725977946312"}}, "geometry": {"type": "Point", "coordinates": [65.81406472769696, -60.16078907886414]}}, {"type": "Feature", "properties": {"norad_id": 30680, "name": "FENGYUN 1C DEB", "group": "fengyun-1c-debris", "lat": -21.817151400289905, "lon": 43.69694711509974, "alt_km": 1293.9773683430067, "timestamp": "2025-12-23T09:49:07.361180+00:00", "meta": {"OBJECT_NAME": "FENGYUN 1C DEB", "OBJECT_ID": "1999-025AQN", "EPOCH": "2025-12-22T02:03:46.869696", "MEAN_MOTION": 13.56187034, "ECCENTRICITY": 0.03371473, "INCLINATION": 99.6296, "RA_OF_ASC_NODE": 38.5049, "ARG_OF_PERICENTER": 144.6702, "MEAN_ANOMALY": 217.7291, "EPHEMERIS_TYPE": 0, "CLASSIFICATION_TYPE": "U", "NORAD_CAT_ID": 30680, "ELEMENT_SET_NO": 999, "REV_AT_EPOCH": 92380, "BSTAR": 0.0047103335, "MEAN_MOTION_DOT": 4.73e-05, "MEAN_MOTION_DDOT": 0}, "tle": {"line1": "1 30680U 99025AQN 25356.08595914  .00004730  00000+0  47103-2 0  9994", "line2": "2 30680  99.6296  38.5049 0337147 144.6702 217.7291 13.56187034923807"}}, "geometry": {"type": "Point", "coordinates": [43.69694711509974, -21.817151400289905]}}, {"type": "Feature", "properties": {"norad_id": 30683, "name": "FENGYUN 1C DEB", "group": "fengyun-1c-debris", "lat": -6.138626770222181, "lon": -171.79216675871848, "alt_km": 796.719679551723, "timestamp": "2025-12-23T09:49:07.361197+00:00", "meta": {"OBJECT_NAME": "FENGYUN 1C DEB", "OBJECT_ID": "1999-025AQR", "EPOCH": "2025-12-21T13:05:37.679136", "MEAN_MOTION": 14.00415415, "ECCENTRICITY": 0.0138269, "INCLINATION": 99.4268, "RA_OF_ASC_NODE": 7.3106, "ARG_OF_PERICENTER": 200.5149, "MEAN_ANOMALY": 315.8935, "EPHEMERIS_TYPE": 0, "CLASSIFICATION_TYPE": "U", "NORAD_CAT_ID": 30683, "ELEMENT_SET_NO": 999, "REV_AT_EPOCH": 95674, "BSTAR": 0.00085947, "MEAN_MOTION_DOT": 1.336e-05, "MEAN_MOTION_DDOT": 0}, "tle": {"line1": "1 30683U 99025AQR 25355.54557499  .00001336  00000+0  85947-3 0  9991", "line2": "2 30683  99.4268   7.3106 0138269 200.5149 315.8935 14.00415415956747"}}, "geometry": {"type": "Point", "coordinates": [-171.79216675871848, -6.138626770222181]}}, {"type": "Feature", "properties": {"norad_id": 30684, "name": "FENGYUN 1C DEB", "group": "fengyun-1c-debris", "lat": 30.0784396666552, "lon": -135.76991861843257, "alt_km": 1012.9431328392557, "timestamp": "2025-12-23T09:49:07.361209+00:00", "meta": {"OBJECT_NAME": "FENGYUN 1C DEB", "OBJECT_ID": "1999-025AQS", "EPOCH": "2025-12-21T00:50:48.741504", "MEAN_MOTION": 13.66822163, "ECCENTRICITY": 0.02358167, "INCLINATION": 99.5309, "RA_OF_ASC_NODE": 36.3069, "ARG_OF_PERICENTER": 248.0087, "MEAN_ANOMALY": 109.585, "EPHEMERIS_TYPE": 0, "CLASSIFICATION_TYPE": "U", "NORAD_CAT_ID": 30684, "ELEMENT_SET_NO": 999, "REV_AT_EPOCH": 93742, "BSTAR": 0.00085046597, "MEAN_MOTION_DOT": 8.13e-06, "MEAN_MOTION_DDOT": 0}, "tle": {"line1": "1 30684U 99025AQS 25355.03528636  .00000813  00000+0  85047-3 0  9997", "line2": "2 30684  99.5309  36.3069 0235816 248.0087 109.5850 13.66822163937420"}}, "geometry": {"type": "Point", "coordinates": [-135.76991861843257, 30.0784396666552]}}, {"type": "Feature", "properties": {"norad_id": 30686, "name": "FENGYUN 1C DEB", "group": "fengyun-1c-debris", "lat": -60.87600284057984, "lon": -4.06961388804511, "alt_km": 746.7355555546374, "timestamp": "2025-12-23T09:49:07.361220+00:00", "meta": {"OBJECT_NAME": "FENGYUN 1C DEB", "OBJECT_ID": "1999-025AQU", "EPOCH": "2025-12-22T19:45:47.034720", "MEAN_MOTION": 14.73973919, "ECCENTRICITY": 0.0144113, "INCLINATION": 99.0324, "RA_OF_ASC_NODE": 191.8678, "ARG_OF_PERICENTER": 89.3566, "MEAN_ANOMALY": 286.2321, "EPHEMERIS_TYPE": 0, "CLASSIFICATION_TYPE": "U", "NORAD_CAT_ID": 30686, "ELEMENT_SET_NO": 999, "REV_AT_EPOCH": 99750, "BSTAR": 0.0006581249, "MEAN_MOTION_DOT": 5.04e-05, "MEAN_MOTION_DDOT": 0}, "tle": {"line1": "1 30686U 99025AQU 25356.82346105  .00005040  00000+0  65812-3 0  9991", "line2": "2 30686  99.0324 191.8678 0144113  89.3566 286.2321 14.73973919997500"}}, "geometry": {"type": "Point", "coordinates": [-4.06961388804511, -60.87600284057984]}}, {"type": "Feature", "properties": {"norad_id": 30688, "name": "FENGYUN 1C DEB", "group": "fengyun-1c-debris", "lat": 55.775333790848144, "lon": 57.81716078899554, "alt_km": 784.9954385098918, "timestamp": "2025-12-23T09:49:07.361232+00:00", "meta": {"OBJECT_NAME": "FENGYUN 1C DEB", "OBJECT_ID": "1999-025AQW", "EPOCH": "2025-12-21T23:12:13.081248", "MEAN_MOTION": 14.32769433, "ECCENTRICITY": 0.00157187, "INCLINATION": 98.7009, "RA_OF_ASC_NODE": 69.3796, "ARG_OF_PERICENTER": 286.449, "MEAN_ANOMALY": 255.1513, "EPHEMERIS_TYPE": 0, "CLASSIFICATION_TYPE": "U", "NORAD_CAT_ID": 30688, "ELEMENT_SET_NO": 999, "REV_AT_EPOCH": 97392, "BSTAR": 0.0014746755, "MEAN_MOTION_DOT": 3.98e-05, "MEAN_MOTION_DDOT": 0}, "tle": {"line1": "1 30688U 99025AQW 25355.96681807  .00003980  00000+0  14747-2 0  9999", "line2": "2 30688  98.7009  69.3796 0015718 286.4490 255.1513 14.32769433973929"}}, "geometry": {"type": "Point", "coordinates": [57.81716078899554, 55.775333790848144]}}, {"type": "Feature", "properties": {"norad_id": 30689, "name": "FENGYUN 1C DEB", "group": "fengyun-1c-debris", "lat": -33.29146921806982, "lon": -10.889883435154497, "alt_km": 882.0025700968481, "timestamp": "2025-12-23T09:49:07.361242+00:00", "meta": {"OBJECT_NAME": "FENGYUN 1C DEB", "OBJECT_ID": "1999-025AQX", "EPOCH": "2025-12-22T12:26:14.720352", "MEAN_MOTION": 14.1178131, "ECCENTRICITY": 0.01117847, "INCLINATION": 98.7089, "RA_OF_ASC_NODE": 342.4684, "ARG_OF_PERICENTER": 75.7688, "MEAN_ANOMALY": 46.5056, "EPHEMERIS_TYPE": 0, "CLASSIFICATION_TYPE": "U", "NORAD_CAT_ID": 30689, "ELEMENT_SET_NO": 999, "REV_AT_EPOCH": 97028, "BSTAR": 0.00035026142, "MEAN_MOTION_DOT": 6.35e-06, "MEAN_MOTION_DDOT": 0}, "tle": {"line1": "1 30689U 99025AQX 25356.51822593  .00000635  00000+0  35026-3 0  9999", "line2": "2 30689  98.7089 342.4684 0111784  75.7688  46.5056 14.11781310970282"}}, "geometry": {"type": "Point", "coordinates": [-10.889883435154497, -33.29146921806982]}}]}